STARLINK-30610          
1 58082U 23160H   25235.83013638  .00000204  00000+0  30192-4 0  9998
2 58082  43.0027  75.4597 0001089 247.0455 113.0273 15.02547002103156
STARLINK-30551          
1 58083U 23160J   25235.82680510  .00001268  00000+0  10894-3 0  9994
2 58083  43.0032  75.4339 0001350 261.3467  98.7223 15.02531230103150
STARLINK-30586          
1 58084U 23160K   25235.88995167  .00000471  00000+0  49904-4 0  9998
2 58084  43.0027  75.0478 0001141 265.8106  94.2606 15.02537428103164
STARLINK-30609          
1 58085U 23160L   25235.82014851 -.00000471  00000+0 -19847-4 0  9990
2 58085  43.0020  75.3823 0000850 251.3046 108.7705 15.02529825103156
STARLINK-30583          
1 58086U 23160M   25235.81681425  .00002190  00000+0  17720-3 0  9992
2 58086  43.0032  75.3584 0001232 263.5394  96.5308 15.02527736103152
STARLINK-30557          
1 58087U 23160N   25235.81570616  .00000156  00000+0  26587-4 0  9994
2 58087  43.0034  75.3476 0001024 267.6317  92.4408 15.02534101103154
STARLINK-30591          
1 58088U 23160P   25235.67719997  .00000469  00000+0  49801-4 0  9997
2 58088  43.0032  76.0306 0001164 260.5728  99.4982 15.02533071103133
STARLINK-30584          
1 58089U 23160Q   25235.87332106 -.00000386  00000+0 -13522-4 0  9994
2 58089  43.0025  74.9232 0001031 247.7405 112.3328 15.02527726103165
STARLINK-30590          
1 58090U 23160R   25235.61405305  .00000363  00000+0  41927-4 0  9993
2 58090  43.0039  76.4175 0001152 267.0649  93.0062 15.02535032103129
STARLINK-30608          
1 58091U 23160S   25235.67054010  .00000640  00000+0  62485-4 0  9993
2 58091  43.0031  75.9811 0001196 262.5616  97.5091 15.02532792103137
STARLINK-30615          
1 58092U 23160T   25235.86553833 -.00000139  00000+0  47957-5 0  9994
2 58092  43.0046  74.8594 0000421 264.5583  95.5212 15.02534944103162
STARLINK-30578          
1 58093U 23160U   25234.97923989  .00000016  00000+0  16271-4 0  9996
2 58093  43.0028  80.2430 0001064 266.7392  93.3328 15.02534556103027
STARLINK-30574          
1 58094U 23160V   25235.86331471  .00000226  00000+0  31767-4 0  9995
2 58094  43.0036  74.8458 0001251 269.7314  90.3385 15.02537821103164
STARLINK-30570          
1 58095U 23160W   25235.59407109  .00000480  00000+0  50630-4 0  9990
2 58095  43.0034  76.2678 0001269 266.9791  93.0906 15.02535751103125
STARLINK-30581          
1 58096U 23160X   25235.85343934  .00000103  00000+0  22692-4 0  9994
2 58096  43.0034  75.6180 0001402 264.2954  95.7729 15.02537663103157
STARLINK-30594          
1 58097U 23161A   25235.79613912  .00000127  00000+0  16419-4 0  9991
2 58097  53.1628   4.6999 0001154  86.2699 273.8433 15.30202116104123
