[{"OBJECT_NAME":"STARLINK-30610","OBJECT_ID":"2023-160H","EPOCH":"2025-08-23T19:55:23.783232","MEAN_MOTION":15.02547002,"ECCENTRICITY":0.00010898,"INCLINATION":43.0027,"RA_OF_ASC_NODE":75.4597,"ARG_OF_PERICENTER":247.0455,"MEAN_ANOMALY":113.0273,"EPHEMERIS_TYPE":0,"CLASSIFICATION_TYPE":"U","NORAD_CAT_ID":58082,"ELEMENT_SET_NO":999,"REV_AT_EPOCH":10315,"BSTAR":3.0192128e-5,"MEAN_MOTION_DOT":2.04e-6,"MEAN_MOTION_DDOT":0},{"OBJECT_NAME":"STARLINK-30551","OBJECT_ID":"2023-160J","EPOCH":"2025-08-23T19:50:35.960640","MEAN_MOTION":15.0253123,"ECCENTRICITY":0.00013505,"INCLINATION":43.0032,"RA_OF_ASC_NODE":75.4339,"ARG_OF_PERICENTER":261.3467,"MEAN_ANOMALY":98.7223,"EPHEMERIS_TYPE":0,"CLASSIFICATION_TYPE":"U","NORAD_CAT_ID":58083,"ELEMENT_SET_NO":999,"REV_AT_EPOCH":10315,"BSTAR":0.00010894139,"MEAN_MOTION_DOT":1.268e-5,"MEAN_MOTION_DDOT":0},{"OBJECT_NAME":"STARLINK-30586","OBJECT_ID":"2023-160K","EPOCH":"2025-08-23T21:21:31.824288","MEAN_MOTION":15.02537428,"ECCENTRICITY":0.00011412,"INCLINATION":43.0027,"RA_OF_ASC_NODE":75.0478,"ARG_OF_PERICENTER":265.8106,"MEAN_ANOMALY":94.2606,"EPHEMERIS_TYPE":0,"CLASSIFICATION_TYPE":"U","NORAD_CAT_ID":58084,"ELEMENT_SET_NO":999,"REV_AT_EPOCH":10316,"BSTAR":4.9903624e-5,"MEAN_MOTION_DOT":4.71e-6,"MEAN_MOTION_DDOT":0},{"OBJECT_NAME":"STARLINK-30609","OBJECT_ID":"2023-160L","EPOCH":"2025-08-23T19:41:00.831264","MEAN_MOTION":15.02529825,"ECCENTRICITY":8.506e-5,"INCLINATION":43.002,"RA_OF_ASC_NODE":75.3823,"ARG_OF_PERICENTER":251.3046,"MEAN_ANOMALY":108.7705,"EPHEMERIS_TYPE":0,"CLASSIFICATION_TYPE":"U","NORAD_CAT_ID":58085,"ELEMENT_SET_NO":999,"REV_AT_EPOCH":10315,"BSTAR":-1.9846608e-5,"MEAN_MOTION_DOT":-4.71e-6,"MEAN_MOTION_DDOT":0},{"OBJECT_NAME":"STARLINK-30583","OBJECT_ID":"2023-160M","EPOCH":"2025-08-23T19:36:12.751200","MEAN_MOTION":15.02527736,"ECCENTRICITY":0.00012322,"INCLINATION":43.0032,"RA_OF_ASC_NODE":75.3584,"ARG_OF_PERICENTER":263.5394,"MEAN_ANOMALY":96.5308,"EPHEMERIS_TYPE":0,"CLASSIFICATION_TYPE":"U","NORAD_CAT_ID":58086,"ELEMENT_SET_NO":999,"REV_AT_EPOCH":10315,"BSTAR":0.0001772004,"MEAN_MOTION_DOT":2.19e-5,"MEAN_MOTION_DDOT":0},{"OBJECT_NAME":"STARLINK-30557","OBJECT_ID":"2023-160N","EPOCH":"2025-08-23T19:34:37.012224","MEAN_MOTION":15.02534101,"ECCENTRICITY":0.00010241,"INCLINATION":43.0034,"RA_OF_ASC_NODE":75.3476,"ARG_OF_PERICENTER":267.6317,"MEAN_ANOMALY":92.4408,"EPHEMERIS_TYPE":0,"CLASSIFICATION_TYPE":"U","NORAD_CAT_ID":58087,"ELEMENT_SET_NO":999,"REV_AT_EPOCH":10315,"BSTAR":2.6586714e-5,"MEAN_MOTION_DOT":1.56e-6,"MEAN_MOTION_DDOT":0},{"OBJECT_NAME":"STARLINK-30591","OBJECT_ID":"2023-160P","EPOCH":"2025-08-23T16:15:10.077408","MEAN_MOTION":15.02533071,"ECCENTRICITY":0.00011646,"INCLINATION":43.0032,"RA_OF_ASC_NODE":76.0306,"ARG_OF_PERICENTER":260.5728,"MEAN_ANOMALY":99.4982,"EPHEMERIS_TYPE":0,"CLASSIFICATION_TYPE":"U","NORAD_CAT_ID":58088,"ELEMENT_SET_NO":999,"REV_AT_EPOCH":10313,"BSTAR":4.980142e-5,"MEAN_MOTION_DOT":4.69e-6,"MEAN_MOTION_DDOT":0},{"OBJECT_NAME":"STARLINK-30584","OBJECT_ID":"2023-160Q","EPOCH":"2025-08-23T20:57:34.939584","MEAN_MOTION":15.02527726,"ECCENTRICITY":0.00010319,"INCLINATION":43.0025,"RA_OF_ASC_NODE":74.9232,"ARG_OF_PERICENTER":247.7405,"MEAN_ANOMALY":112.3328,"EPHEMERIS_TYPE":0,"CLASSIFICATION_TYPE":"U","NORAD_CAT_ID":58089,"ELEMENT_SET_NO":999,"REV_AT_EPOCH":10316,"BSTAR":-1.3521694e-5,"MEAN_MOTION_DOT":-3.86e-6,"MEAN_MOTION_DDOT":0},{"OBJECT_NAME":"STARLINK-30590","OBJECT_ID":"2023-160R","EPOCH":"2025-08-23T14:44:14.183520","MEAN_MOTION":15.02535032,"ECCENTRICITY":0.00011524,"INCLINATION":43.0039,"RA_OF_ASC_NODE":76.4175,"ARG_OF_PERICENTER":267.0649,"MEAN_ANOMALY":93.0062,"EPHEMERIS_TYPE":0,"CLASSIFICATION_TYPE":"U","NORAD_CAT_ID":58090,"ELEMENT_SET_NO":999,"REV_AT_EPOCH":10312,"BSTAR":4.1926821e-5,"MEAN_MOTION_DOT":3.63e-6,"MEAN_MOTION_DDOT":0},{"OBJECT_NAME":"STARLINK-30608","OBJECT_ID":"2023-160S","EPOCH":"2025-08-23T16:05:34.664640","MEAN_MOTION":15.02532792,"ECCENTRICITY":0.00011965,"INCLINATION":43.0031,"RA_OF_ASC_NODE":75.9811,"ARG_OF_PERICENTER":262.5616,"MEAN_ANOMALY":97.5091,"EPHEMERIS_TYPE":0,"CLASSIFICATION_TYPE":"U","NORAD_CAT_ID":58091,"ELEMENT_SET_NO":999,"REV_AT_EPOCH":10313,"BSTAR":6.2485383e-5,"MEAN_MOTION_DOT":6.4e-6,"MEAN_MOTION_DDOT":0},{"OBJECT_NAME":"STARLINK-30615","OBJECT_ID":"2023-160T","EPOCH":"2025-08-23T20:46:22.511712","MEAN_MOTION":15.02534944,"ECCENTRICITY":4.211e-5,"INCLINATION":43.0046,"RA_OF_ASC_NODE":74.8594,"ARG_OF_PERICENTER":264.5583,"MEAN_ANOMALY":95.5212,"EPHEMERIS_TYPE":0,"CLASSIFICATION_TYPE":"U","NORAD_CAT_ID":58092,"ELEMENT_SET_NO":999,"REV_AT_EPOCH":10316,"BSTAR":4.795664e-6,"MEAN_MOTION_DOT":-1.39e-6,"MEAN_MOTION_DDOT":0},{"OBJECT_NAME":"STARLINK-30578","OBJECT_ID":"2023-160U","EPOCH":"2025-08-22T23:30:06.326496","MEAN_MOTION":15.02534556,"ECCENTRICITY":0.00010646,"INCLINATION":43.0028,"RA_OF_ASC_NODE":80.243,"ARG_OF_PERICENTER":266.7392,"MEAN_ANOMALY":93.3328,"EPHEMERIS_TYPE":0,"CLASSIFICATION_TYPE":"U","NORAD_CAT_ID":58093,"ELEMENT_SET_NO":999,"REV_AT_EPOCH":10302,"BSTAR":1.6270772e-5,"MEAN_MOTION_DOT":1.6e-7,"MEAN_MOTION_DDOT":0},{"OBJECT_NAME":"STARLINK-30574","OBJECT_ID":"2023-160V","EPOCH":"2025-08-23T20:43:10.390944","MEAN_MOTION":15.02537821,"ECCENTRICITY":0.00012518,"INCLINATION":43.0036,"RA_OF_ASC_NODE":74.8458,"ARG_OF_PERICENTER":269.7314,"MEAN_ANOMALY":90.3385,"EPHEMERIS_TYPE":0,"CLASSIFICATION_TYPE":"U","NORAD_CAT_ID":58094,"ELEMENT_SET_NO":999,"REV_AT_EPOCH":10316,"BSTAR":3.1767125e-5,"MEAN_MOTION_DOT":2.26e-6,"MEAN_MOTION_DDOT":0},{"OBJECT_NAME":"STARLINK-30570","OBJECT_ID":"2023-160W","EPOCH":"2025-08-23T14:15:27.742176","MEAN_MOTION":15.02535751,"ECCENTRICITY":0.00012697,"INCLINATION":43.0034,"RA_OF_ASC_NODE":76.2678,"ARG_OF_PERICENTER":266.9791,"MEAN_ANOMALY":93.0906,"EPHEMERIS_TYPE":0,"CLASSIFICATION_TYPE":"U","NORAD_CAT_ID":58095,"ELEMENT_SET_NO":999,"REV_AT_EPOCH":10312,"BSTAR":5.0629538e-5,"MEAN_MOTION_DOT":4.8e-6,"MEAN_MOTION_DDOT":0},{"OBJECT_NAME":"STARLINK-30581","OBJECT_ID":"2023-160X","EPOCH":"2025-08-23T20:28:57.158976","MEAN_MOTION":15.02537663,"ECCENTRICITY":0.00014025,"INCLINATION":43.0034,"RA_OF_ASC_NODE":75.618,"ARG_OF_PERICENTER":264.2954,"MEAN_ANOMALY":95.7729,"EPHEMERIS_TYPE":0,"CLASSIFICATION_TYPE":"U","NORAD_CAT_ID":58096,"ELEMENT_SET_NO":999,"REV_AT_EPOCH":10315,"BSTAR":2.269157e-5,"MEAN_MOTION_DOT":1.03e-6,"MEAN_MOTION_DDOT":0},{"OBJECT_NAME":"STARLINK-30594","OBJECT_ID":"2023-161A","EPOCH":"2025-08-23T19:06:26.419968","MEAN_MOTION":15.30202116,"ECCENTRICITY":0.00011548,"INCLINATION":53.1628,"RA_OF_ASC_NODE":4.6999,"ARG_OF_PERICENTER":86.2699,"MEAN_ANOMALY":273.8433,"EPHEMERIS_TYPE":0,"CLASSIFICATION_TYPE":"U","NORAD_CAT_ID":58097,"ELEMENT_SET_NO":999,"REV_AT_EPOCH":10412,"BSTAR":1.6418789e-5,"MEAN_MOTION_DOT":1.27e-6,"MEAN_MOTION_DDOT":0}]
